[sun]
name = Sun
parent = none
radius = 696000.
halo = false
color = 1.0,0.98,0.97
tex_map = sun.png
tex_halo = NULL
coord_func = sun_special
lighting = false
albedo = -1.
rot_periode = 654.61
rot_obliquity = 7.25
rot_equator_ascending_node = 196.13
type = star

[mercury]
name = Mercury
parent = Sun
radius = 2439.7
halo = true
color = 1.0,0.98,0.96
tex_map = mercury.png
tex_halo = star16x16.png
coord_func = mercury_special
lighting = true
albedo = 0.06
rot_periode = 1407.509405
rot_rotation_offset = 291.20
rot_pole_ra = 281.001
rot_pole_de = 61.45
#rot_obliquity = 7.01
#rot_equator_ascending_node = 48.42
orbit_visualization_period = 87.97
type = planet

[venus]
name = Venus
parent = Sun
radius = 6051.8
halo = true
color = 1.0,1.0,0.9
tex_map = venus.png
tex_halo = star16x16.png
coord_func = venus_special
lighting = true
albedo = 0.77
rot_periode = -5832.479839
rot_rotation_offset = 137.45
rot_pole_ra = 272.76
rot_pole_de = 67.16
#rot_obliquity = 178.78
#rot_equator_ascending_node = 300.22
orbit_visualization_period = 224.70
atmosphere = 1
type = planet

[earth]
name = Earth
parent = Sun
radius = 6378.14
oblateness = 0.00335364
halo = true
color = 0.7,0.8,1.0
tex_map = earth_cmap.png
tex_halo = star16x16.png
coord_func = earth_special
lighting = true
albedo = 0.3
rot_periode = 23.9344694
rot_rotation_offset = 280.5
#rot_obliquity = -23.438855
rot_obliquity = -23.4392803055555555556
rot_epoch = 2451545.0
rot_precession_rate = 1.39639 #degrees/j.century (annual rate 50.27 arcseconds)
orbit_visualization_period = 365.256363004
atmosphere = 1
landscape = guereins
type = planet

[moon]
name = Moon
parent = Earth
radius = 1737.4
halo = false
color = 1.0,0.98,0.96
tex_map = moon.png
tex_halo = NULL
coord_func = lunar_special
lighting = true
albedo = 0.12
rot_periode = 655.7198811
rot_rotation_offset = 38
rot_obliquity = 23.45
rot_equator_ascending_node = 0
landscape = moon
orbit_visualization_period = 27.321582
type = moon

[mars]
name = Mars
parent = Sun
radius = 3397
oblateness = 0.0064763
halo = true
color = 1.0,0.84,0.68
tex_map = mars.png
tex_halo = star16x16.png
coord_func = mars_special
lighting = true
albedo = 0.150
rot_periode = 24.622962
rot_rotation_offset = 136.005
#rot_obliquity = 26.72
#rot_equator_ascending_node = 82.91
rot_pole_ra = 317.6725
rot_pole_de = 52.88212
orbit_visualization_period = 686.971
atmosphere = 1
landscape = mars
type = planet

[phobos]
name = Phobos
parent = Mars
radius = 11.1
halo = true
color = 1.,1.,1.
tex_map = phobos.png
tex_halo = star16x16.png
lighting = true
albedo = 0.06
rot_periode = 7.653843687
rot_rotation_offset = 318.9
rot_obliquity = 0.6
#rot_equator_ascending_node = 186.6
coord_func = phobos_special
type = moon

[deimos]
name = Deimos
parent = Mars
radius = 6.2
halo = true
color = 1.,1.,1.
tex_map = deimos.png
tex_halo = star16x16.png
lighting = true
albedo = 0.21
rot_periode = 30.29857807
rot_rotation_offset = 318.9
rot_obliquity = 0.6
#rot_equator_ascending_node = 186.6
coord_func = deimos_special
type = moon

[jupiter]
name = Jupiter
parent = Sun
radius = 71492
oblateness = 0.064874
halo = true
color = 1.0,0.97,0.89
tex_map = jupiter.png #texture courtesy of Björn Jónsson
tex_halo = star16x16.png
coord_func = jupiter_special
lighting = true
albedo = 0.51
rot_periode = 9.92491
rot_rotation_offset = 315
#rot_obliquity = 2.222461
#rot_equator_ascending_node = -22.203
rot_pole_ra = 268.05
rot_pole_de = 64.49
orbit_visualization_period = 4331.87
atmosphere = 1
type = planet

[io]
name = Io
parent = Jupiter
radius = 1821.3
halo = true
color = 1.,.8,.7
tex_map = io.png
tex_halo = star16x16.png
lighting = true
albedo = 0.61
rot_periode = 42.45930719
rot_rotation_offset = 220.8
rot_obliquity = 0.0
coord_func = io_special
atmosphere = 1
orbit_visualization_period = 1.769
type = moon

[europa]
name = Europa
parent = Jupiter
radius = 1565.
halo = true
color = 1.,1.,1.
tex_map = europa.png
tex_halo = star16x16.png
lighting = true
albedo = 0.64
rot_obliquity = 0.0
rot_periode = 85.22834590
rot_rotation_offset = 56.2
coord_func = europa_special
orbit_visualization_period = 3.551
atmosphere = 1
type = moon

[ganymede]
name = Ganymede
parent = Jupiter
radius = 2634.
halo = true
color = 1.,1.,1.
tex_map = ganymede.png
tex_halo = star16x16.png
lighting = true
albedo = 0.42
rot_periode = 171.7092749
rot_rotation_offset = 262.1
rot_obliquity = 0.1
#rot_equator_ascending_node = 161.6
coord_func = ganymede_special
orbit_visualization_period = 7.155
atmosphere = 1
type = moon

[callisto]
name = Callisto
parent = Jupiter
radius = 2403.
halo = true
color = 1.,1.,1.
tex_map = callisto.png
tex_halo = star16x16.png
lighting = true
albedo = 0.20
rot_periode = 400.5364314
rot_rotation_offset = 120.1
rot_obliquity = 0.4
#rot_equator_ascending_node = 160.6
coord_func = calisto_special
orbit_visualization_period = 16.689
atmosphere = 1
type = moon

[amalthea]
name = Amalthea
parent = Jupiter
radius = 73
halo = true
color = 1.,0.9,0.75
tex_map = amalthea.png
tex_halo = star16x16.png
lighting = true
albedo = 0.06
rot_periode = 0.5016370462116355
rot_rotation_offset = 14.9
rot_obliquity = 15.5
rot_equator_ascending_node = 213.7
coord_func = ell_orbit
orbit_Epoch = 2454619.50000
orbit_Period = 0.5016370462116355
orbit_visualization_period = 0.5016370462116355
orbit_SemiMajorAxis = 181994.8658358799
orbit_Eccentricity = 0.006175744402949701
orbit_Inclination = 0.3864576103404582
orbit_AscendingNode = 141.5521520794674
orbit_LongOfPericenter = 245.4222355150120000
orbit_MeanLongitude = 224.7924893552550000
type = moon

[himalia]
name = Himalia
parent = Jupiter
radius = 85
halo = true
color = 1.,0.9,0.75
tex_map = lune.png
tex_halo = star16x16.png
lighting = true
albedo = 0.03
rot_periode = 0.4
rot_rotation_offset = 14.9
rot_obliquity = 15.5
rot_equator_ascending_node = 213.7
coord_func = ell_orbit
orbit_Epoch = 2454619.50000
orbit_Period = 248.3161934941932
orbit_visualization_period = 248.3161934941932
orbit_SemiMajorAxis = 11388576.13393731
orbit_Eccentricity = 0.1341186732710830
orbit_Inclination = 29.52734924407240
orbit_AscendingNode = 62.74369092219344
orbit_LongOfPericenter = 48.3391873600156000
orbit_MeanLongitude = 202.0757439998000000
type = moon

[elara]
name = Elara
parent = Jupiter
radius = 40
halo = true
color = 1.,0.9,0.75
tex_map = lune.png
tex_halo = star16x16.png
lighting = true
albedo = 0.03
rot_periode = 0.5
rot_rotation_offset = 14.9
rot_obliquity = 15.5
rot_equator_ascending_node = 213.7
coord_func = ell_orbit
orbit_Epoch = 2454619.50000
orbit_Period = 258.8836449322499
orbit_visualization_period = 258.8836449322499
orbit_SemiMajorAxis = 11709431.51919092
orbit_Eccentricity = 0.1961747274882456
orbit_Inclination = 31.98511468770062
orbit_Ascendingnode = 108.1879658680286
orbit_LongOfPericenter = 271.5797601368340000
orbit_MeanLongitude = 172.2385623581720000
type = moon

[pasiphae]
name = Pasiphae
parent = Jupiter
radius = 40
halo = true
color = 1.,0.9,0.75
tex_map = lune.png
tex_halo = star16x16.png
lighting = true
albedo = 0.03
rot_periode = 709.0532625178348
rot_rotation_offset = 14.9
rot_obliquity = 15.5
rot_equator_ascending_node = 213.7
coord_func = ell_orbit
orbit_Epoch = 2454619.50000
orbit_Period = 709.0532625178348
orbit_visualization_period = 709.0532625178348
orbit_SemiMajorAxis = 22921971.82698924
orbit_Eccentricity = 0.2932152942598935
orbit_Inclination = 142.0571683364765
orbit_AscendingNode = 345.6392561172470
orbit_LongOfPericenter = 185.9358722739560000
orbit_MeanLongitude = 155.7385593991940000
type = moon

[sinope]
name = Sinope
parent = Jupiter
radius = 40
halo = true
color = 1.,0.9,0.75
tex_map = lune.png
tex_halo = star16x16.png
lighting = true
albedo = 0.03
rot_periode = 778.6442493765837
rot_rotation_offset = 14.9
rot_obliquity = 15.5
rot_equator_ascending_node = 213.7
coord_func = ell_orbit
orbit_Epoch = 2454619.50000
orbit_Period = 778.6442493765837
orbit_visualization_period = 778.6442493765837
orbit_SemiMajorAxis = 24398256.25007371
orbit_Eccentricity = 0.1823445283881716
orbit_Inclination = 153.0924984377859
orbit_AscendingNode = 337.3608948461959
orbit_LongOfPericenter = 334.0923761708530000
orbit_MeanLongitude = 187.6932736301600000
type = moon

[lysithea]
name = Lysithea
parent = Jupiter
radius = 12
halo = true
color = 1.,0.9,0.75
tex_map = lune.png
tex_halo = star16x16.png
lighting = true
albedo = 0.03
rot_periode = 259.0469768771512
rot_rotation_offset = 14.9
rot_obliquity = 15.5
rot_equator_ascending_node = 213.7
coord_func = ell_orbit
orbit_Epoch = 2454619.50000
orbit_Period = 259.0469768771512
orbit_visualization_period = 259.0469768771512
orbit_SemiMajorAxis = 11714356.05630203
orbit_Eccentricity = 0.1281232102397132
orbit_Inclination = 24.59040357245339
orbit_AscendingNode = 0.2875682490706584
orbit_LongOfPericenter = 78.9389828310578000
orbit_MeanLongitude = 337.5492383800380000
type = moon

[carme]
name = Carme
parent = Jupiter
radius = 15
halo = true
color = 1.,0.9,0.75
tex_map = lune.png
tex_halo = star16x16.png
lighting = true
albedo = 0.03
rot_periode = 691.6548924754876
rot_rotation_offset = 14.9
rot_obliquity = 15.5
rot_equator_ascending_node = 213.7
coord_func = ell_orbit
orbit_Epoch = 2454619.50000
orbit_Period = 691.6548924754876
orbit_visualization_period = 691.6548924754876
orbit_SemiMajorAxis = 22545456.68297467
orbit_Eccentricity = 0.2602970868062183
orbit_Inclination = 168.2000198365060
orbit_AscendingNode = 157.3089190745055
orbit_LongOfPericenter = 249.8596440195790000
orbit_MeanLongitude = 168.7753954572220000
type = moon

